{
    "links": {
        "self": "http://www.neowsapp.com/rest/v1/neo/3714178?api_key=iIulBulltgU6a56xZRHN4H3l9WmuAYTsLGpBGhQ2"
    },
    "id": "3714178",
    "neo_reference_id": "3714178",
    "name": "(2015 FH37)",
    "designation": "2015 FH37",
    "nasa_jpl_url": "http://ssd.jpl.nasa.gov/sbdb.cgi?sstr=3714178",
    "absolute_magnitude_h": 24.7,
    "estimated_diameter": {
        "kilometers": {
            "estimated_diameter_min": 0.0305179233,
            "estimated_diameter_max": 0.0682401509
        },
        "meters": {
            "estimated_diameter_min": 30.5179232594,
            "estimated_diameter_max": 68.2401509401
        },
        "miles": {
            "estimated_diameter_min": 0.0189629525,
            "estimated_diameter_max": 0.0424024508
        },
        "feet": {
            "estimated_diameter_min": 100.1244233463,
            "estimated_diameter_max": 223.8850168104
        }
    },
    "is_potentially_hazardous_asteroid": false,
    "close_approach_data": [
        {
            "close_approach_date": "2012-03-04",
            "close_approach_date_full": "2012-Mar-04 17:52",
            "epoch_date_close_approach": 1330883520000,
            "relative_velocity": {
                "kilometers_per_second": "33.142600954",
                "kilometers_per_hour": "119313.3634345051",
                "miles_per_hour": "74136.6840740679"
            },
            "miss_distance": {
                "astronomical": "0.4942308554",
                "lunar": "192.2558027506",
                "kilometers": "73935883.256117998",
                "miles": "45941627.5137764524"
            },
            "orbiting_body": "Earth"
        },
        {
            "close_approach_date": "2015-03-27",
            "close_approach_date_full": "2015-Mar-27 10:26",
            "epoch_date_close_approach": 1427451960000,
            "relative_velocity": {
                "kilometers_per_second": "18.9633246616",
                "kilometers_per_hour": "68267.9687818334",
                "miles_per_hour": "42419.0609355787"
            },
            "miss_distance": {
                "astronomical": "0.0228954447",
                "lunar": "8.9063279883",
                "kilometers": "3425109.759822789",
                "miles": "2128264.5158169282"
            },
            "orbiting_body": "Earth"
        }
    ],
    "orbital_data": {
        "orbit_id": "5",
        "orbit_determination_date": "2017-04-06 08:34:49",
        "first_observation_date": "2015-03-22",
        "last_observation_date": "2015-03-26",
        "data_arc_in_days": 4,
        "observations_used": 21,
        "orbit_uncertainty": "8",
        "minimum_orbit_intersection": ".00520235",
        "jupiter_tisserand_invariant": "4.733",
        "epoch_osculation": "2457105.5",
        "eccentricity": ".5543569537407422",
        "semi_major_axis": "1.332763387227429",
        "inclination": "10.28344919025157",
        "ascending_node_longitude": "8.881047134454041",
        "orbital_period": "561.9892486916633",
        "perihelion_distance": ".5939367358268383",
        "perihelion_argument": "276.0250662204571",
        "aphelion_distance": "2.07159003862802",
        "perihelion_time": "2457162.805564933113",
        "mean_anomaly": "323.2911066822928",
        "mean_motion": ".6405816496278114",
        "equinox": "J2000",
        "orbit_class": {
            "orbit_class_type": "APO",
            "orbit_class_description": "Near-Earth asteroid orbits which cross the Earth’s orbit similar to that of 1862 Apollo",
            "orbit_class_range": "a (semi-major axis) > 1.0 AU; q (perihelion) < 1.017 AU"
        }
    },
    "is_sentry_object": false
}